<?xml version="1.0" encoding="UTF-8"?>
<ndm xmlns:xsi="http://www.w3.org/2001/XMLSchema-instance" xsi:noNamespaceSchemaLocation="https://sanaregistry.org/r/ndmxml_unqualified/ndmxml-2.0.0-master-2.0.xsd">
<omm id="CCSDS_OMM_VERS" version="2.0">
<header><CREATION_DATE/><ORIGINATOR/></header><body><segment><metadata><OBJECT_NAME>IRIDIUM 36</OBJECT_NAME><OBJECT_ID>1997-056C</OBJECT_ID><CENTER_NAME>EARTH</CENTER_NAME><REF_FRAME>TEME</REF_FRAME><TIME_SYSTEM>UTC</TIME_SYSTEM><MEAN_ELEMENT_THEORY>SGP4</MEAN_ELEMENT_THEORY></metadata><data><meanElements><EPOCH>2024-07-14T13:28:49.376640</EPOCH><MEAN_MOTION>14.36889124</MEAN_MOTION><ECCENTRICITY>.0002243</ECCENTRICITY><INCLINATION>86.3984</INCLINATION><RA_OF_ASC_NODE>314.8001</RA_OF_ASC_NODE><ARG_OF_PERICENTER>89.5801</ARG_OF_PERICENTER><MEAN_ANOMALY>270.5654</MEAN_ANOMALY></meanElements><tleParameters><EPHEMERIS_TYPE>0</EPHEMERIS_TYPE><CLASSIFICATION_TYPE>U</CLASSIFICATION_TYPE><NORAD_CAT_ID>24967</NORAD_CAT_ID><ELEMENT_SET_NO>999</ELEMENT_SET_NO><REV_AT_EPOCH>40372</REV_AT_EPOCH><BSTAR>.29386E-3</BSTAR><MEAN_MOTION_DOT>.888E-5</MEAN_MOTION_DOT><MEAN_MOTION_DDOT>0</MEAN_MOTION_DDOT></tleParameters></data></segment></body></omm>
<omm id="CCSDS_OMM_VERS" version="2.0">
<header><CREATION_DATE/><ORIGINATOR/></header><body><segment><metadata><OBJECT_NAME>IRIDIUM 39</OBJECT_NAME><OBJECT_ID>1997-069D</OBJECT_ID><CENTER_NAME>EARTH</CENTER_NAME><REF_FRAME>TEME</REF_FRAME><TIME_SYSTEM>UTC</TIME_SYSTEM><MEAN_ELEMENT_THEORY>SGP4</MEAN_ELEMENT_THEORY></metadata><data><meanElements><EPOCH>2024-07-14T12:17:19.516416</EPOCH><MEAN_MOTION>14.48061499</MEAN_MOTION><ECCENTRICITY>.0018116</ECCENTRICITY><INCLINATION>86.3932</INCLINATION><RA_OF_ASC_NODE>355.8534</RA_OF_ASC_NODE><ARG_OF_PERICENTER>0.5105</ARG_OF_PERICENTER><MEAN_ANOMALY>359.6114</MEAN_ANOMALY></meanElements><tleParameters><EPHEMERIS_TYPE>0</EPHEMERIS_TYPE><CLASSIFICATION_TYPE>U</CLASSIFICATION_TYPE><NORAD_CAT_ID>25042</NORAD_CAT_ID><ELEMENT_SET_NO>999</ELEMENT_SET_NO><REV_AT_EPOCH>40007</REV_AT_EPOCH><BSTAR>.33513E-3</BSTAR><MEAN_MOTION_DOT>.1268E-4</MEAN_MOTION_DOT><MEAN_MOTION_DDOT>0</MEAN_MOTION_DDOT></tleParameters></data></segment></body></omm>
<omm id="CCSDS_OMM_VERS" version="2.0">
<header><CREATION_DATE/><ORIGINATOR/></header><body><segment><metadata><OBJECT_NAME>IRIDIUM 38</OBJECT_NAME><OBJECT_ID>1997-069E</OBJECT_ID><CENTER_NAME>EARTH</CENTER_NAME><REF_FRAME>TEME</REF_FRAME><TIME_SYSTEM>UTC</TIME_SYSTEM><MEAN_ELEMENT_THEORY>SGP4</MEAN_ELEMENT_THEORY></metadata><data><meanElements><EPOCH>2024-07-14T13:27:18.798336</EPOCH><MEAN_MOTION>14.37334470</MEAN_MOTION><ECCENTRICITY>.0003715</ECCENTRICITY><INCLINATION>86.3964</INCLINATION><RA_OF_ASC_NODE>15.1575</RA_OF_ASC_NODE><ARG_OF_PERICENTER>107.1052</ARG_OF_PERICENTER><MEAN_ANOMALY>253.0552</MEAN_ANOMALY></meanElements><tleParameters><EPHEMERIS_TYPE>0</EPHEMERIS_TYPE><CLASSIFICATION_TYPE>U</CLASSIFICATION_TYPE><NORAD_CAT_ID>25043</NORAD_CAT_ID><ELEMENT_SET_NO>999</ELEMENT_SET_NO><REV_AT_EPOCH>39744</REV_AT_EPOCH><BSTAR>.26888E-3</BSTAR><MEAN_MOTION_DOT>.822E-5</MEAN_MOTION_DOT><MEAN_MOTION_DDOT>0</MEAN_MOTION_DDOT></tleParameters></data></segment></body></omm>
<omm id="CCSDS_OMM_VERS" version="2.0">
<header><CREATION_DATE/><ORIGINATOR/></header><body><segment><metadata><OBJECT_NAME>IRIDIUM 42</OBJECT_NAME><OBJECT_ID>1997-077A</OBJECT_ID><CENTER_NAME>EARTH</CENTER_NAME><REF_FRAME>TEME</REF_FRAME><TIME_SYSTEM>UTC</TIME_SYSTEM><MEAN_ELEMENT_THEORY>SGP4</MEAN_ELEMENT_THEORY></metadata><data><meanElements><EPOCH>2024-07-14T13:49:47.669088</EPOCH><MEAN_MOTION>14.35627268</MEAN_MOTION><ECCENTRICITY>.0002535</ECCENTRICITY><INCLINATION>86.3963</INCLINATION><RA_OF_ASC_NODE>20.9036</RA_OF_ASC_NODE><ARG_OF_PERICENTER>101.4788</ARG_OF_PERICENTER><MEAN_ANOMALY>258.6694</MEAN_ANOMALY></meanElements><tleParameters><EPHEMERIS_TYPE>0</EPHEMERIS_TYPE><CLASSIFICATION_TYPE>U</CLASSIFICATION_TYPE><NORAD_CAT_ID>25077</NORAD_CAT_ID><ELEMENT_SET_NO>999</ELEMENT_SET_NO><REV_AT_EPOCH>39274</REV_AT_EPOCH><BSTAR>.24966E-3</BSTAR><MEAN_MOTION_DOT>.739E-5</MEAN_MOTION_DOT><MEAN_MOTION_DDOT>0</MEAN_MOTION_DDOT></tleParameters></data></segment></body></omm>
<omm id="CCSDS_OMM_VERS" version="2.0">
<header><CREATION_DATE/><ORIGINATOR/></header><body><segment><metadata><OBJECT_NAME>IRIDIUM 44</OBJECT_NAME><OBJECT_ID>1997-077B</OBJECT_ID><CENTER_NAME>EARTH</CENTER_NAME><REF_FRAME>TEME</REF_FRAME><TIME_SYSTEM>UTC</TIME_SYSTEM><MEAN_ELEMENT_THEORY>SGP4</MEAN_ELEMENT_THEORY></metadata><data><meanElements><EPOCH>2024-07-14T12:47:47.962464</EPOCH><MEAN_MOTION>14.39474189</MEAN_MOTION><ECCENTRICITY>.0003808</ECCENTRICITY><INCLINATION>86.3968</INCLINATION><RA_OF_ASC_NODE>3.7575</RA_OF_ASC_NODE><ARG_OF_PERICENTER>75.0823</ARG_OF_PERICENTER><MEAN_ANOMALY>285.0797</MEAN_ANOMALY></meanElements><tleParameters><EPHEMERIS_TYPE>0</EPHEMERIS_TYPE><CLASSIFICATION_TYPE>U</CLASSIFICATION_TYPE><NORAD_CAT_ID>25078</NORAD_CAT_ID><ELEMENT_SET_NO>999</ELEMENT_SET_NO><REV_AT_EPOCH>39511</REV_AT_EPOCH><BSTAR>.26136E-3</BSTAR><MEAN_MOTION_DOT>.834E-5</MEAN_MOTION_DOT><MEAN_MOTION_DDOT>0</MEAN_MOTION_DDOT></tleParameters></data></segment></body></omm>
<omm id="CCSDS_OMM_VERS" version="2.0">
<header><CREATION_DATE/><ORIGINATOR/></header><body><segment><metadata><OBJECT_NAME>IRIDIUM 45</OBJECT_NAME><OBJECT_ID>1997-082A</OBJECT_ID><CENTER_NAME>EARTH</CENTER_NAME><REF_FRAME>TEME</REF_FRAME><TIME_SYSTEM>UTC</TIME_SYSTEM><MEAN_ELEMENT_THEORY>SGP4</MEAN_ELEMENT_THEORY></metadata><data><meanElements><EPOCH>2024-07-14T13:38:08.105568</EPOCH><MEAN_MOTION>15.04075379</MEAN_MOTION><ECCENTRICITY>.0159018</ECCENTRICITY><INCLINATION>86.3723</INCLINATION><RA_OF_ASC_NODE>209.3885</RA_OF_ASC_NODE><ARG_OF_PERICENTER>138.8477</ARG_OF_PERICENTER><MEAN_ANOMALY>222.4880</MEAN_ANOMALY></meanElements><tleParameters><EPHEMERIS_TYPE>0</EPHEMERIS_TYPE><CLASSIFICATION_TYPE>U</CLASSIFICATION_TYPE><NORAD_CAT_ID>25104</NORAD_CAT_ID><ELEMENT_SET_NO>999</ELEMENT_SET_NO><REV_AT_EPOCH>40097</REV_AT_EPOCH><BSTAR>.89195E-3</BSTAR><MEAN_MOTION_DOT>.16417E-3</MEAN_MOTION_DOT><MEAN_MOTION_DDOT>0</MEAN_MOTION_DDOT></tleParameters></data></segment></body></omm>
<omm id="CCSDS_OMM_VERS" version="2.0">
<header><CREATION_DATE/><ORIGINATOR/></header><body><segment><metadata><OBJECT_NAME>IRIDIUM 24</OBJECT_NAME><OBJECT_ID>1997-082B</OBJECT_ID><CENTER_NAME>EARTH</CENTER_NAME><REF_FRAME>TEME</REF_FRAME><TIME_SYSTEM>UTC</TIME_SYSTEM><MEAN_ELEMENT_THEORY>SGP4</MEAN_ELEMENT_THEORY></metadata><data><meanElements><EPOCH>2024-07-14T14:06:10.157184</EPOCH><MEAN_MOTION>14.41259918</MEAN_MOTION><ECCENTRICITY>.0013708</ECCENTRICITY><INCLINATION>86.3906</INCLINATION><RA_OF_ASC_NODE>223.2734</RA_OF_ASC_NODE><ARG_OF_PERICENTER>109.7763</ARG_OF_PERICENTER><MEAN_ANOMALY>250.4916</MEAN_ANOMALY></meanElements><tleParameters><EPHEMERIS_TYPE>0</EPHEMERIS_TYPE><CLASSIFICATION_TYPE>U</CLASSIFICATION_TYPE><NORAD_CAT_ID>25105</NORAD_CAT_ID><ELEMENT_SET_NO>999</ELEMENT_SET_NO><REV_AT_EPOCH>39457</REV_AT_EPOCH><BSTAR>.23676E-3</BSTAR><MEAN_MOTION_DOT>.785E-5</MEAN_MOTION_DOT><MEAN_MOTION_DDOT>0</MEAN_MOTION_DDOT></tleParameters></data></segment></body></omm>
<omm id="CCSDS_OMM_VERS" version="2.0">
<header><CREATION_DATE/><ORIGINATOR/></header><body><segment><metadata><OBJECT_NAME>IRIDIUM 51</OBJECT_NAME><OBJECT_ID>1998-018A</OBJECT_ID><CENTER_NAME>EARTH</CENTER_NAME><REF_FRAME>TEME</REF_FRAME><TIME_SYSTEM>UTC</TIME_SYSTEM><MEAN_ELEMENT_THEORY>SGP4</MEAN_ELEMENT_THEORY></metadata><data><meanElements><EPOCH>2024-07-14T13:56:13.595424</EPOCH><MEAN_MOTION>15.12474552</MEAN_MOTION><ECCENTRICITY>.0144703</ECCENTRICITY><INCLINATION>86.3954</INCLINATION><RA_OF_ASC_NODE>219.1182</RA_OF_ASC_NODE><ARG_OF_PERICENTER>82.2559</ARG_OF_PERICENTER><MEAN_ANOMALY>279.5083</MEAN_ANOMALY></meanElements><tleParameters><EPHEMERIS_TYPE>0</EPHEMERIS_TYPE><CLASSIFICATION_TYPE>U</CLASSIFICATION_TYPE><NORAD_CAT_ID>25262</NORAD_CAT_ID><ELEMENT_SET_NO>999</ELEMENT_SET_NO><REV_AT_EPOCH>39555</REV_AT_EPOCH><BSTAR>.9743E-3</BSTAR><MEAN_MOTION_DOT>.21998E-3</MEAN_MOTION_DOT><MEAN_MOTION_DDOT>0</MEAN_MOTION_DDOT></tleParameters></data></segment></body></omm>

</ndm>
