IRIDIUM 36              
1 24967U 97056C   24196.56168260  .00000888  00000+0  29386-3 0  9995
2 24967  86.3984 314.8001 0002243  89.5801 270.5654 14.36889124403728
IRIDIUM 39              
1 25042U 97069D   24196.51203144  .00001268  00000+0  33513-3 0  9990
2 25042  86.3932 355.8534 0018116   0.5105 359.6114 14.48061499400073
IRIDIUM 38              
1 25043U 97069E   24196.56063424  .00000822  00000+0  26888-3 0  9993
2 25043  86.3964  15.1575 0003715 107.1052 253.0552 14.37334470397443
IRIDIUM 42              
1 25077U 97077A   24196.57624617  .00000739  00000+0  24966-3 0  9999
2 25077  86.3963  20.9036 0002535 101.4788 258.6694 14.35627268392741
IRIDIUM 44              
1 25078U 97077B   24196.53319401  .00000834  00000+0  26136-3 0  9995
2 25078  86.3968   3.7575 0003808  75.0823 285.0797 14.39474189395112
IRIDIUM 45              
1 25104U 97082A   24196.56814937  .00016417  00000+0  89195-3 0  9996
2 25104  86.3723 209.3885 0159018 138.8477 222.4880 15.04075379400977
IRIDIUM 24              
1 25105U 97082B   24196.58761756  .00000785  00000+0  23676-3 0  9992
2 25105  86.3906 223.2734 0013708 109.7763 250.4916 14.41259918394571
IRIDIUM 51              
1 25262U 98018A   24196.58071291  .00021998  00000+0  97430-3 0  9992
2 25262  86.3954 219.1182 0144703  82.2559 279.5083 15.12474552395555
